IRIDIUM 63              
1 25286U 98021B   25271.89416642  .00001018  00000+0  33954-3 0  9996
2 25286  86.3999  38.5959 0001891  88.6806 271.4608 14.36631710438738
IRIDIUM 69              
1 25319U 98026A   25271.93541600  .00001384  00000+0  42404-3 0  9992
2 25319  86.3964  51.5429 0004024  64.4535 295.7080 14.41070763438000
IRIDIUM 71              
1 25320U 98026B   25272.27616586  .00000721  00000+0  21733-3 0  9994
2 25320  86.3975  46.0760 0004171  97.2105 262.9569 14.41240805438588
IRIDIUM 73              
1 25344U 98032C   25272.27775495  .00001214  00000+0  29674-3 0  9992
2 25344  86.4472   2.6129 0002286  75.4482 284.6977 14.51843406445663
IRIDIUM 82              
1 25467U 98051A   25271.90792428  .00060229  00000+0  14705-2 0  9992
2 25467  86.3629  58.5117 0074580 261.4292  97.8505 15.37713783439866
