<?xml version="1.0" encoding="UTF-8"?>
<ndm xmlns:xsi="http://www.w3.org/2001/XMLSchema-instance" xsi:noNamespaceSchemaLocation="https://sanaregistry.org/r/ndmxml_unqualified/ndmxml-2.0.0-master-2.0.xsd">
<omm id="CCSDS_OMM_VERS" version="2.0">
<header><CREATION_DATE/><ORIGINATOR/></header><body><segment><metadata><OBJECT_NAME>IRIDIUM 63</OBJECT_NAME><OBJECT_ID>1998-021B</OBJECT_ID><CENTER_NAME>EARTH</CENTER_NAME><REF_FRAME>TEME</REF_FRAME><TIME_SYSTEM>UTC</TIME_SYSTEM><MEAN_ELEMENT_THEORY>SGP4</MEAN_ELEMENT_THEORY></metadata><data><meanElements><EPOCH>2025-09-28T21:27:35.978688</EPOCH><MEAN_MOTION>14.36631710</MEAN_MOTION><ECCENTRICITY>.00018914</ECCENTRICITY><INCLINATION>86.3999</INCLINATION><RA_OF_ASC_NODE>38.5959</RA_OF_ASC_NODE><ARG_OF_PERICENTER>88.6806</ARG_OF_PERICENTER><MEAN_ANOMALY>271.4608</MEAN_ANOMALY></meanElements><tleParameters><EPHEMERIS_TYPE>0</EPHEMERIS_TYPE><CLASSIFICATION_TYPE>U</CLASSIFICATION_TYPE><NORAD_CAT_ID>25286</NORAD_CAT_ID><ELEMENT_SET_NO>999</ELEMENT_SET_NO><REV_AT_EPOCH>43873</REV_AT_EPOCH><BSTAR>.33954137E-3</BSTAR><MEAN_MOTION_DOT>.1018E-4</MEAN_MOTION_DOT><MEAN_MOTION_DDOT>0</MEAN_MOTION_DDOT></tleParameters></data></segment></body></omm>
<omm id="CCSDS_OMM_VERS" version="2.0">
<header><CREATION_DATE/><ORIGINATOR/></header><body><segment><metadata><OBJECT_NAME>IRIDIUM 69</OBJECT_NAME><OBJECT_ID>1998-026A</OBJECT_ID><CENTER_NAME>EARTH</CENTER_NAME><REF_FRAME>TEME</REF_FRAME><TIME_SYSTEM>UTC</TIME_SYSTEM><MEAN_ELEMENT_THEORY>SGP4</MEAN_ELEMENT_THEORY></metadata><data><meanElements><EPOCH>2025-09-28T22:26:59.942400</EPOCH><MEAN_MOTION>14.41070763</MEAN_MOTION><ECCENTRICITY>.00040241</ECCENTRICITY><INCLINATION>86.3964</INCLINATION><RA_OF_ASC_NODE>51.5429</RA_OF_ASC_NODE><ARG_OF_PERICENTER>64.4535</ARG_OF_PERICENTER><MEAN_ANOMALY>295.7080</MEAN_ANOMALY></meanElements><tleParameters><EPHEMERIS_TYPE>0</EPHEMERIS_TYPE><CLASSIFICATION_TYPE>U</CLASSIFICATION_TYPE><NORAD_CAT_ID>25319</NORAD_CAT_ID><ELEMENT_SET_NO>999</ELEMENT_SET_NO><REV_AT_EPOCH>43800</REV_AT_EPOCH><BSTAR>.42403532E-3</BSTAR><MEAN_MOTION_DOT>.1384E-4</MEAN_MOTION_DOT><MEAN_MOTION_DDOT>0</MEAN_MOTION_DDOT></tleParameters></data></segment></body></omm>
<omm id="CCSDS_OMM_VERS" version="2.0">
<header><CREATION_DATE/><ORIGINATOR/></header><body><segment><metadata><OBJECT_NAME>IRIDIUM 71</OBJECT_NAME><OBJECT_ID>1998-026B</OBJECT_ID><CENTER_NAME>EARTH</CENTER_NAME><REF_FRAME>TEME</REF_FRAME><TIME_SYSTEM>UTC</TIME_SYSTEM><MEAN_ELEMENT_THEORY>SGP4</MEAN_ELEMENT_THEORY></metadata><data><meanElements><EPOCH>2025-09-29T06:37:40.730304</EPOCH><MEAN_MOTION>14.41240805</MEAN_MOTION><ECCENTRICITY>.00041716</ECCENTRICITY><INCLINATION>86.3975</INCLINATION><RA_OF_ASC_NODE>46.0760</RA_OF_ASC_NODE><ARG_OF_PERICENTER>97.2105</ARG_OF_PERICENTER><MEAN_ANOMALY>262.9569</MEAN_ANOMALY></meanElements><tleParameters><EPHEMERIS_TYPE>0</EPHEMERIS_TYPE><CLASSIFICATION_TYPE>U</CLASSIFICATION_TYPE><NORAD_CAT_ID>25320</NORAD_CAT_ID><ELEMENT_SET_NO>999</ELEMENT_SET_NO><REV_AT_EPOCH>43858</REV_AT_EPOCH><BSTAR>.21732501E-3</BSTAR><MEAN_MOTION_DOT>.721E-5</MEAN_MOTION_DOT><MEAN_MOTION_DDOT>0</MEAN_MOTION_DDOT></tleParameters></data></segment></body></omm>
<omm id="CCSDS_OMM_VERS" version="2.0">
<header><CREATION_DATE/><ORIGINATOR/></header><body><segment><metadata><OBJECT_NAME>IRIDIUM 73</OBJECT_NAME><OBJECT_ID>1998-032C</OBJECT_ID><CENTER_NAME>EARTH</CENTER_NAME><REF_FRAME>TEME</REF_FRAME><TIME_SYSTEM>UTC</TIME_SYSTEM><MEAN_ELEMENT_THEORY>SGP4</MEAN_ELEMENT_THEORY></metadata><data><meanElements><EPOCH>2025-09-29T06:39:58.027680</EPOCH><MEAN_MOTION>14.51843406</MEAN_MOTION><ECCENTRICITY>.00022868</ECCENTRICITY><INCLINATION>86.4472</INCLINATION><RA_OF_ASC_NODE>2.6129</RA_OF_ASC_NODE><ARG_OF_PERICENTER>75.4482</ARG_OF_PERICENTER><MEAN_ANOMALY>284.6977</MEAN_ANOMALY></meanElements><tleParameters><EPHEMERIS_TYPE>0</EPHEMERIS_TYPE><CLASSIFICATION_TYPE>U</CLASSIFICATION_TYPE><NORAD_CAT_ID>25344</NORAD_CAT_ID><ELEMENT_SET_NO>999</ELEMENT_SET_NO><REV_AT_EPOCH>44566</REV_AT_EPOCH><BSTAR>.29674256E-3</BSTAR><MEAN_MOTION_DOT>.1214E-4</MEAN_MOTION_DOT><MEAN_MOTION_DDOT>0</MEAN_MOTION_DDOT></tleParameters></data></segment></body></omm>
<omm id="CCSDS_OMM_VERS" version="2.0">
<header><CREATION_DATE/><ORIGINATOR/></header><body><segment><metadata><OBJECT_NAME>IRIDIUM 82</OBJECT_NAME><OBJECT_ID>1998-051A</OBJECT_ID><CENTER_NAME>EARTH</CENTER_NAME><REF_FRAME>TEME</REF_FRAME><TIME_SYSTEM>UTC</TIME_SYSTEM><MEAN_ELEMENT_THEORY>SGP4</MEAN_ELEMENT_THEORY></metadata><data><meanElements><EPOCH>2025-09-28T21:47:24.657792</EPOCH><MEAN_MOTION>15.37713783</MEAN_MOTION><ECCENTRICITY>.00745809</ECCENTRICITY><INCLINATION>86.3629</INCLINATION><RA_OF_ASC_NODE>58.5117</RA_OF_ASC_NODE><ARG_OF_PERICENTER>261.4292</ARG_OF_PERICENTER><MEAN_ANOMALY>97.8505</MEAN_ANOMALY></meanElements><tleParameters><EPHEMERIS_TYPE>0</EPHEMERIS_TYPE><CLASSIFICATION_TYPE>U</CLASSIFICATION_TYPE><NORAD_CAT_ID>25467</NORAD_CAT_ID><ELEMENT_SET_NO>999</ELEMENT_SET_NO><REV_AT_EPOCH>43986</REV_AT_EPOCH><BSTAR>.14705055E-2</BSTAR><MEAN_MOTION_DOT>.60229E-3</MEAN_MOTION_DOT><MEAN_MOTION_DDOT>0</MEAN_MOTION_DDOT></tleParameters></data></segment></body></omm>
</ndm>
